{
  "type": "FeatureCollection",
  "features": [
    {
      "type": "Feature",
      "properties": {
        "norad_id": 33630,
        "name": "FENGYUN 1C DEB",
        "group": "fengyun-1c-debris",
        "lat": -36.18042618531822,
        "lon": 98.81680699373784,
        "alt_km": 865.2451161408608,
        "timestamp": "2025-12-12T05:47:29.057846+00:00",
        "meta_object_name": "FENGYUN 1C DEB",
        "meta_object_id": "1999-025DDP",
        "meta_epoch": "2025-12-09T13:35:56.277312",
        "meta_mean_motion": 14.17713216,
        "meta_eccentricity": 0.0135528,
        "meta_inclination": 98.6166,
        "meta_ra_of_asc_node": 89.8546,
        "meta_arg_of_pericenter": 77.2482,
        "meta_mean_anomaly": 284.3802,
        "meta_ephemeris_type": 0,
        "meta_classification_type": "U",
        "meta_norad_cat_id": 33630,
        "meta_element_set_no": 999,
        "meta_rev_at_epoch": 64366,
        "meta_bstar": 0.00061826,
        "meta_mean_motion_dot": 1.337e-05,
        "meta_mean_motion_ddot": 0,
        "tle_line1": "1 33630U 99025DDP 25343.56662358  .00001337  00000+0  61826-3 0  9997",
        "tle_line2": "2 33630  98.6166  89.8546 0135528  77.2482 284.3802 14.17713216643662"
      },
      "geometry": {
        "type": "Point",
        "coordinates": [
          98.81680699373784,
          -36.18042618531822
        ]
      }
    },
    {
      "type": "Feature",
      "properties": {
        "norad_id": 33633,
        "name": "FENGYUN 1C DEB",
        "group": "fengyun-1c-debris",
        "lat": 2.645360014303064,
        "lon": 80.06835428314888,
        "alt_km": 881.8806548536959,
        "timestamp": "2025-12-12T05:47:29.057857+00:00",
        "meta_object_name": "FENGYUN 1C DEB",
        "meta_object_id": "1999-025DDS",
        "meta_epoch": "2025-12-09T05:09:41.870880",
        "meta_mean_motion": 14.19278753,
        "meta_eccentricity": 0.0083508,
        "meta_inclination": 99.0481,
        "meta_ra_of_asc_node": 77.4006,
        "meta_arg_of_pericenter": 160.8678,
        "meta_mean_anomaly": 228.508,
        "meta_ephemeris_type": 0,
        "meta_classification_type": "U",
        "meta_norad_cat_id": 33633,
        "meta_element_set_no": 999,
        "meta_rev_at_epoch": 90661,
        "meta_bstar": 0.003396465,
        "meta_mean_motion_dot": 7.339e-05,
        "meta_mean_motion_ddot": 0,
        "tle_line1": "1 33633U 99025DDS 25343.21506795  .00007339  00000+0  33965-2 0  9994",
        "tle_line2": "2 33633  99.0481  77.4006 0083508 160.8678 228.5080 14.19278753906619"
      },
      "geometry": {
        "type": "Point",
        "coordinates": [
          80.06835428314888,
          2.645360014303064
        ]
      }
    },
    {
      "type": "Feature",
      "properties": {
        "norad_id": 33637,
        "name": "FENGYUN 1C DEB",
        "group": "fengyun-1c-debris",
        "lat": -33.664865971892795,
        "lon": -154.48358895620075,
        "alt_km": 746.303576024874,
        "timestamp": "2025-12-12T05:47:29.057867+00:00",
        "meta_object_name": "FENGYUN 1C DEB",
        "meta_object_id": "1999-025DDW",
        "meta_epoch": "2025-12-11T08:44:50.038656",
        "meta_mean_motion": 14.36733805,
        "meta_eccentricity": 0.00831045,
        "meta_inclination": 98.493,
        "meta_ra_of_asc_node": 30.363,
        "meta_arg_of_pericenter": 155.527,
        "meta_mean_anomaly": 204.9897,
        "meta_ephemeris_type": 0,
        "meta_classification_type": "U",
        "meta_norad_cat_id": 33637,
        "meta_element_set_no": 999,
        "meta_rev_at_epoch": 64818,
        "meta_bstar": 0.0022658521,
        "meta_mean_motion_dot": 6.913e-05,
        "meta_mean_motion_ddot": 0,
        "tle_line1": "1 33637U 99025DDW 25345.36446804  .00006913  00000+0  22659-2 0  9995",
        "tle_line2": "2 33637  98.4930  30.3630 0083104 155.5270 204.9897 14.36733805648189"
      },
      "geometry": {
        "type": "Point",
        "coordinates": [
          -154.48358895620075,
          -33.664865971892795
        ]
      }
    },
    {
      "type": "Feature",
      "properties": {
        "norad_id": 33638,
        "name": "FENGYUN 1C DEB",
        "group": "fengyun-1c-debris",
        "lat": 72.64501989529137,
        "lon": 85.44806632780416,
        "alt_km": 1186.878473323387,
        "timestamp": "2025-12-12T05:47:29.057877+00:00",
        "meta_object_name": "FENGYUN 1C DEB",
        "meta_object_id": "1999-025DDX",
        "meta_epoch": "2025-12-11T22:14:50.922528",
        "meta_mean_motion": 13.69308763,
        "meta_eccentricity": 0.02648049,
        "meta_inclination": 98.4644,
        "meta_ra_of_asc_node": 236.7162,
        "meta_arg_of_pericenter": 275.2453,
        "meta_mean_anomaly": 81.8534,
        "meta_ephemeris_type": 0,
        "meta_classification_type": "U",
        "meta_norad_cat_id": 33638,
        "meta_element_set_no": 999,
        "meta_rev_at_epoch": 60904,
        "meta_bstar": 0.0019789268,
        "meta_mean_motion_dot": 2.159e-05,
        "meta_mean_motion_ddot": 0,
        "tle_line1": "1 33638U 99025DDX 25345.92697827  .00002159  00000+0  19789-2 0  9999",
        "tle_line2": "2 33638  98.4644 236.7162 0264804 275.2453  81.8534 13.69308763609043"
      },
      "geometry": {
        "type": "Point",
        "coordinates": [
          85.44806632780416,
          72.64501989529137
        ]
      }
    },
    {
      "type": "Feature",
      "properties": {
        "norad_id": 33639,
        "name": "FENGYUN 1C DEB",
        "group": "fengyun-1c-debris",
        "lat": -76.82160559035171,
        "lon": 118.12886433701968,
        "alt_km": 729.696256199838,
        "timestamp": "2025-12-12T05:47:29.057887+00:00",
        "meta_object_name": "FENGYUN 1C DEB",
        "meta_object_id": "1999-025DDY",
        "meta_epoch": "2025-12-03T23:45:48.189312",
        "meta_mean_motion": 14.40248408,
        "meta_eccentricity": 0.00493059,
        "meta_inclination": 98.7136,
        "meta_ra_of_asc_node": 68.813,
        "meta_arg_of_pericenter": 315.1865,
        "meta_mean_anomaly": 44.5345,
        "meta_ephemeris_type": 0,
        "meta_classification_type": "U",
        "meta_norad_cat_id": 33639,
        "meta_element_set_no": 999,
        "meta_rev_at_epoch": 60456,
        "meta_bstar": 0.0043899516,
        "meta_mean_motion_dot": 0.00014079,
        "meta_mean_motion_ddot": 0,
        "tle_line1": "1 33639U 99025DDY 25337.99014108  .00014079  00000+0  43900-2 0  9999",
        "tle_line2": "2 33639  98.7136  68.8130 0049305 315.1865  44.5345 14.40248408604567"
      },
      "geometry": {
        "type": "Point",
        "coordinates": [
          118.12886433701968,
          -76.82160559035171
        ]
      }
    },
    {
      "type": "Feature",
      "properties": {
        "norad_id": 33640,
        "name": "FENGYUN 1C DEB",
        "group": "fengyun-1c-debris",
        "lat": 79.06470690352721,
        "lon": 162.6352124232311,
        "alt_km": 703.6577751808309,
        "timestamp": "2025-12-12T05:47:29.057897+00:00",
        "meta_object_name": "FENGYUN 1C DEB",
        "meta_object_id": "1999-025DDZ",
        "meta_epoch": "2025-12-11T19:22:45.041664",
        "meta_mean_motion": 14.45889666,
        "meta_eccentricity": 0.00906976,
        "meta_inclination": 98.8406,
        "meta_ra_of_asc_node": 288.5217,
        "meta_arg_of_pericenter": 162.4466,
        "meta_mean_anomaly": 197.9894,
        "meta_ephemeris_type": 0,
        "meta_classification_type": "U",
        "meta_norad_cat_id": 33640,
        "meta_element_set_no": 999,
        "meta_rev_at_epoch": 92329,
        "meta_bstar": 0.00074722735,
        "meta_mean_motion_dot": 2.744e-05,
        "meta_mean_motion_ddot": 0,
        "tle_line1": "1 33640U 99025DDZ 25345.80746576  .00002744  00000+0  74723-3 0  9995",
        "tle_line2": "2 33640  98.8406 288.5217 0090697 162.4466 197.9894 14.45889666923295"
      },
      "geometry": {
        "type": "Point",
        "coordinates": [
          162.6352124232311,
          79.06470690352721
        ]
      }
    },
    {
      "type": "Feature",
      "properties": {
        "norad_id": 33648,
        "name": "FENGYUN 1C DEB",
        "group": "fengyun-1c-debris",
        "lat": 79.43877360320684,
        "lon": -70.45437279558112,
        "alt_km": 846.9170052869977,
        "timestamp": "2025-12-12T05:47:29.057908+00:00",
        "meta_object_name": "FENGYUN 1C DEB",
        "meta_object_id": "1999-025DEH",
        "meta_epoch": "2025-12-10T17:40:17.298048",
        "meta_mean_motion": 14.11774019,
        "meta_eccentricity": 0.00687865,
        "meta_inclination": 98.7194,
        "meta_ra_of_asc_node": 343.4805,
        "meta_arg_of_pericenter": 179.859,
        "meta_mean_anomaly": 180.2613,
        "meta_ephemeris_type": 0,
        "meta_classification_type": "U",
        "meta_norad_cat_id": 33648,
        "meta_element_set_no": 999,
        "meta_rev_at_epoch": 64348,
        "meta_bstar": 0.00017202181,
        "meta_mean_motion_dot": 2.78e-06,
        "meta_mean_motion_ddot": 0,
        "tle_line1": "1 33648U 99025DEH 25344.73631132  .00000278  00000+0  17202-3 0  9994",
        "tle_line2": "2 33648  98.7194 343.4805 0068786 179.8590 180.2613 14.11774019643486"
      },
      "geometry": {
        "type": "Point",
        "coordinates": [
          -70.45437279558112,
          79.43877360320684
        ]
      }
    }
  ]
}